{"type":"FeatureCollection","bron":"Weerfocus-hub assets/custom.geo.json (NL, BE, LU)","features":[{"type":"Feature","properties":{"iso_a2":"LU","naam":"Luxemburg"},"geometry":{"type":"Polygon","coordinates":[[[6.116503906250017,50.120996093749994],[6.108300781250023,50.09423828125],[6.109765625000023,50.034375],[6.13818359375,49.97431640625],[6.204882812500017,49.91513671875],[6.256054687500011,49.87216796875],[6.324609375000023,49.837890625],[6.44091796875,49.805322265624994],[6.4873046875,49.798486328124994],[6.49375,49.75439453125],[6.484765625000023,49.7078125],[6.444628906250017,49.68203125],[6.40673828125,49.644970703125],[6.378320312500023,49.599609375],[6.348437500000017,49.5126953125],[6.344335937500006,49.452734375],[6.27734375,49.4775390625],[6.2421875,49.4943359375],[6.181054687500023,49.498925781249994],[6.119921875000017,49.485205078125],[6.074121093750023,49.454638671874996],[6.011425781250011,49.445458984374994],[5.95947265625,49.454638671874996],[5.928906250000011,49.4775390625],[5.9013671875,49.48974609375],[5.823437500000011,49.505078125],[5.789746093750011,49.53828125],[5.8154296875,49.55380859375],[5.837597656250011,49.5783203125],[5.856542968750006,49.612841796874996],[5.88037109375,49.644775390625],[5.8037109375,49.732177734375],[5.787988281250023,49.75888671875],[5.725,49.80830078125],[5.725781250000011,49.833349609375],[5.740820312500006,49.857177734375],[5.735253906250023,49.875634765624994],[5.744042968750023,49.91962890625],[5.7880859375,49.961230468749996],[5.8173828125,50.0126953125],[5.866894531250011,50.0828125],[5.976269531250011,50.1671875],[6.054785156250006,50.154296875],[6.089062500000011,50.154589843749996],[6.110058593750011,50.123779296875],[6.116503906250017,50.120996093749994]]]}},{"type":"Feature","properties":{"iso_a2":"BE","naam":"België"},"geometry":{"type":"Polygon","coordinates":[[[4.226171875,51.386474609375],[4.304492187500017,51.3615234375],[4.373730468750011,51.356005859374996],[4.404003906250011,51.367089843749994],[4.384765625,51.427587890625],[4.44091796875,51.459814453125],[4.50341796875,51.47470703125],[4.531640625000023,51.448583984375],[4.588769531250023,51.421923828124996],[4.633984375000011,51.421728515625],[4.755664062500017,51.491113281249994],[4.7841796875,51.477392578125],[4.810546875,51.452734375],[4.816015625,51.4328125],[4.820703125000023,51.412060546875],[4.848046875000023,51.403271484375],[4.943945312500006,51.407763671874996],[4.992578125000023,51.445361328124996],[5.030957031250011,51.469091796875],[5.059472656250023,51.453125],[5.073437500000011,51.4068359375],[5.099902343750017,51.346484375],[5.214160156250017,51.278955078124994],[5.310839843750017,51.259716796875],[5.429785156250006,51.272998046874996],[5.476855468750017,51.285058593749994],[5.5087890625,51.275],[5.540429687500023,51.239306640624996],[5.608789062500023,51.1984375],[5.752343750000023,51.169482421874996],[5.796484375,51.153076171875],[5.8271484375,51.125634765624994],[5.818261718750023,51.08642578125],[5.749804687500017,50.98876953125],[5.740820312500006,50.959912109375],[5.75,50.950244140624996],[5.736621093750017,50.93212890625],[5.647558593750006,50.866650390625],[5.639453125000017,50.843603515625],[5.669140625000011,50.805957031249996],[5.693554687500011,50.774755859375],[5.693652343750017,50.774658203125],[5.7470703125,50.759570312499996],[5.79736328125,50.754541015624994],[5.892461122495295,50.752556857983514],[5.993945312500017,50.750439453125],[6.005957031250006,50.732226562499996],[6.119433593750017,50.679248046874996],[6.154492187500011,50.637255859374996],[6.2359375,50.5966796875],[6.16845703125,50.545361328125],[6.1787109375,50.522509765624996],[6.203027343750023,50.49912109375],[6.294921875,50.485498046874994],[6.340917968750006,50.4517578125],[6.343652343750023,50.400244140625],[6.364453125000011,50.316162109375],[6.175097656250017,50.232666015625],[6.121289062500011,50.13935546875],[6.116503906250017,50.120996093749994],[6.110058593750011,50.123779296875],[6.089062500000011,50.154589843749996],[6.054785156250006,50.154296875],[5.976269531250011,50.1671875],[5.866894531250011,50.0828125],[5.8173828125,50.0126953125],[5.7880859375,49.961230468749996],[5.744042968750023,49.91962890625],[5.735253906250023,49.875634765624994],[5.740820312500006,49.857177734375],[5.725781250000011,49.833349609375],[5.725,49.80830078125],[5.787988281250023,49.75888671875],[5.8037109375,49.732177734375],[5.88037109375,49.644775390625],[5.856542968750006,49.612841796874996],[5.837597656250011,49.5783203125],[5.8154296875,49.55380859375],[5.789746093750011,49.53828125],[5.71044921875,49.539208984374994],[5.610058593750011,49.528222656249994],[5.542382812500023,49.511035156249996],[5.50732421875,49.510888671874994],[5.434667968750006,49.554492187499996],[5.353515625,49.61982421875],[5.301953125000011,49.6509765625],[5.27880859375,49.6779296875],[5.215039062500011,49.689257812499996],[5.124121093750006,49.721484375],[5.06103515625,49.75654296875],[5.006933593750006,49.778369140624996],[4.930566406250023,49.7892578125],[4.867578125000023,49.788134765624996],[4.84912109375,49.847119140625],[4.841503906250011,49.914501953125],[4.7900390625,49.9595703125],[4.860546875000011,50.135888671874994],[4.818652343750017,50.153173828125],[4.772851562500023,50.1390625],[4.706640625,50.097070312499994],[4.675097656250017,50.046875],[4.656152343750023,50.00244140625],[4.545019531250006,49.960253906249996],[4.36875,49.944970703124994],[4.176074218750017,49.960253906249996],[4.149316406250023,49.971582031249994],[4.137011718750017,49.98447265625],[4.136816406250006,50],[4.150292968750023,50.023876953125],[4.183886718750017,50.05283203125],[4.192187500000017,50.094140625],[4.15771484375,50.1298828125],[4.13525390625,50.143798828125],[4.144140625,50.17841796875],[4.169628906250011,50.22177734375],[4.174609375000017,50.246484375],[4.044140625000011,50.321337890624996],[3.94970703125,50.3359375],[3.858105468750011,50.33857421875],[3.78857421875,50.346972656249996],[3.748046875,50.343505859375],[3.718847656250006,50.321679687499994],[3.689355468750023,50.306054687499994],[3.667285156250017,50.3248046875],[3.626757812500017,50.457324218749996],[3.595410156250011,50.47734375],[3.476953125000023,50.499462890625],[3.316210937500017,50.507373046874996],[3.273339843750023,50.531542968749996],[3.249804687500017,50.591162109375],[3.234960937500006,50.662939453125],[3.182031250000023,50.731689453125],[3.154882812500006,50.748925781249994],[3.106835937500023,50.779443359374994],[3.022851562500023,50.766894531249996],[2.921972656250006,50.72705078125],[2.862402343750006,50.716015625],[2.839746093750023,50.711767578125],[2.759375,50.750634765624994],[2.669140625000011,50.811425781249994],[2.596777343750006,50.875927734375],[2.579296875000011,50.911767578124994],[2.601464843750023,50.9552734375],[2.574804687500006,50.988574218749996],[2.536035156250023,51.04951171875],[2.52490234375,51.097119140625],[2.960156250000011,51.265429687499996],[3.225195312500006,51.351611328124996],[3.35009765625,51.377685546875],[3.380078125000011,51.29111328125],[3.40283203125,51.263623046875],[3.432519531250023,51.245751953124994],[3.471972656250017,51.242236328124996],[3.51708984375,51.263623046875],[3.580273437500011,51.286181640624996],[3.681835937500011,51.275683593749996],[3.755664062500017,51.254833984375],[3.781933593750011,51.233203125],[3.830761718750011,51.21259765625],[3.902050781250011,51.207666015624994],[4.0400390625,51.2470703125],[4.172558593750011,51.307080078125],[4.21142578125,51.34873046875],[4.226171875,51.386474609375]]]}},{"type":"Feature","properties":{"iso_a2":"NL","naam":"Nederland"},"geometry":{"type":"MultiPolygon","coordinates":[[[[5.993945312500017,50.750439453125],[5.892461122495295,50.752556857983514],[5.79736328125,50.754541015624994],[5.7470703125,50.759570312499996],[5.693652343750017,50.774658203125],[5.693554687500011,50.774755859375],[5.669140625000011,50.805957031249996],[5.639453125000017,50.843603515625],[5.647558593750006,50.866650390625],[5.736621093750017,50.93212890625],[5.75,50.950244140624996],[5.740820312500006,50.959912109375],[5.749804687500017,50.98876953125],[5.818261718750023,51.08642578125],[5.8271484375,51.125634765624994],[5.796484375,51.153076171875],[5.752343750000023,51.169482421874996],[5.608789062500023,51.1984375],[5.540429687500023,51.239306640624996],[5.5087890625,51.275],[5.476855468750017,51.285058593749994],[5.429785156250006,51.272998046874996],[5.310839843750017,51.259716796875],[5.214160156250017,51.278955078124994],[5.099902343750017,51.346484375],[5.073437500000011,51.4068359375],[5.059472656250023,51.453125],[5.030957031250011,51.469091796875],[4.992578125000023,51.445361328124996],[4.943945312500006,51.407763671874996],[4.848046875000023,51.403271484375],[4.820703125000023,51.412060546875],[4.816015625,51.4328125],[4.810546875,51.452734375],[4.7841796875,51.477392578125],[4.755664062500017,51.491113281249994],[4.633984375000011,51.421728515625],[4.588769531250023,51.421923828124996],[4.531640625000023,51.448583984375],[4.50341796875,51.47470703125],[4.44091796875,51.459814453125],[4.384765625,51.427587890625],[4.404003906250011,51.367089843749994],[4.373730468750011,51.356005859374996],[4.304492187500017,51.3615234375],[4.226171875,51.386474609375],[4.138867187500011,51.401513671874994],[4.006542968750011,51.443212890625],[3.821875,51.409375],[3.693554687500011,51.44990234375],[3.5869140625,51.45390625],[3.5205078125,51.486181640625],[3.448925781250011,51.540771484375],[3.499609375,51.57666015625],[3.548632812500017,51.589111328125],[3.743945312500017,51.596044921875],[3.886035156250017,51.57421875],[4.141308593750011,51.45576171875],[4.205761718750011,51.456689453124994],[4.274121093750011,51.471630859375],[4.239355468750006,51.50390625],[4.175488281250011,51.519287109375],[4.080468750000023,51.551123046875],[4.004785156250023,51.595849609374994],[4.1826171875,51.610302734375],[4.158007812500017,51.633447265625],[4.134570312500017,51.672900390624996],[3.946875,51.810546875],[3.978906250000023,51.847802734375],[4.026074218750011,51.927734375],[4.084863281250023,51.994091796875],[4.131738281250023,52.0119140625],[4.208789062500017,52.058984375],[4.376269531250017,52.196826171874996],[4.482812500000023,52.3091796875],[4.562109375,52.442578125],[4.678320312500006,52.809765625],[4.712695312500017,52.872119140624996],[4.76875,52.94130859375],[4.839062500000011,52.928271484374996],[4.887988281250017,52.908349609375],[5.061230468750011,52.96064453125],[5.3583984375,53.096484375],[5.445996093750011,53.2140625],[5.532031250000017,53.268701171875],[5.87353515625,53.3751953125],[6.062207031250011,53.407080078125],[6.353222656250011,53.415283203125],[6.563574218750006,53.43427734375],[6.816210937500017,53.441162109375],[6.912402343750017,53.375390625],[6.968164062500023,53.327294921875],[7.058007812500023,53.300585937499996],[7.197265625,53.282275390624996],[7.18896484375,53.18720703125],[7.18994140625,52.99951171875],[7.179492187500017,52.9662109375],[7.117089843750023,52.887011718749996],[7.050878906250006,52.744775390625],[7.033007812500017,52.6513671875],[7.01318359375,52.633544921875],[6.748437500000023,52.634082031249996],[6.710742187500017,52.61787109375],[6.705371093750017,52.59765625],[6.71875,52.573583984375],[6.71240234375,52.549658203125],[6.691601562500011,52.53017578125],[6.702929687500017,52.49921875],[6.748828125000017,52.464013671875],[6.83251953125,52.44228515625],[6.922070312500011,52.440283203125],[6.968164062500023,52.444091796875],[7.001855468750023,52.418994140624996],[7.03515625,52.380224609375],[7.032617187500023,52.331494140625],[7.019628906250006,52.266015625],[6.977246093750011,52.205517578125],[6.855078125,52.135791015624996],[6.800390625,52.11123046875],[6.7490234375,52.098681640624996],[6.724511718750023,52.080224609375],[6.712988281250006,52.056884765625],[6.715625,52.036181640624996],[6.802441406250011,51.98017578125],[6.800390625,51.9673828125],[6.775195312500017,51.93828125],[6.741796875,51.910888671875],[6.517578125,51.853955078125],[6.425,51.8583984375],[6.372167968750006,51.830029296875],[6.355664062500011,51.824658203125],[6.297070312500011,51.850732421875],[6.16650390625,51.88076171875],[6.1171875,51.870410156249996],[6.08984375,51.853955078125],[6.007617187500017,51.833984375],[5.94873046875,51.802685546875],[5.948535156250017,51.76240234375],[6.052734375,51.658251953124996],[6.08935546875,51.63779296875],[6.091113281250017,51.598925781249996],[6.1416015625,51.550097656249996],[6.193261718750023,51.488916015624994],[6.198828125,51.45],[6.19287109375,51.410595703125],[6.166210937500011,51.354833984375],[6.075878906250011,51.22412109375],[6.074804687500006,51.199023437499996],[6.082421875000023,51.179980468749996],[6.113378906250006,51.174707031249994],[6.136914062500011,51.16484375],[6.129980468750006,51.147412109375],[5.961035156250006,51.056689453124996],[5.939257812500017,51.040820312499996],[5.868359375000011,51.0453125],[5.857519531250006,51.030126953125],[5.8671875,51.005664062499996],[5.894726562500011,50.984228515625],[5.955078125,50.972949218749996],[6.0068359375,50.949951171875],[6.0484375,50.9048828125],[5.993945312500017,50.750439453125]]],[[[4.226171875,51.386474609375],[4.21142578125,51.34873046875],[4.172558593750011,51.307080078125],[4.0400390625,51.2470703125],[3.902050781250011,51.207666015624994],[3.830761718750011,51.21259765625],[3.781933593750011,51.233203125],[3.755664062500017,51.254833984375],[3.681835937500011,51.275683593749996],[3.580273437500011,51.286181640624996],[3.51708984375,51.263623046875],[3.471972656250017,51.242236328124996],[3.432519531250023,51.245751953124994],[3.40283203125,51.263623046875],[3.380078125000011,51.29111328125],[3.35009765625,51.377685546875],[3.42578125,51.393505859375],[3.589453125,51.3994140625],[3.716503906250011,51.369140625],[3.883398437500006,51.3544921875],[4.011035156250017,51.395947265625],[4.111523437500011,51.360644531249996],[4.226171875,51.386474609375]]],[[[6.333398437500023,53.5107421875],[6.193261718750023,53.476806640625],[6.159277343750006,53.483935546874996],[6.167675781250011,53.49375],[6.290917968750023,53.514990234375],[6.333398437500023,53.5107421875]]],[[[5.929296875,53.458837890625],[5.73203125,53.442626953125],[5.665332031250017,53.454882812499996],[5.654296875,53.46650390625],[5.708105468750006,53.473388671875],[5.876269531250017,53.47509765625],[5.92822265625,53.464990234375],[5.929296875,53.458837890625]]],[[[5.108593750000011,53.3080078125],[4.923730468750023,53.2345703125],[4.907910156250011,53.246240234375],[5.027050781250011,53.310205078125],[5.108593750000011,53.3080078125]]],[[[5.32578125,53.3857421875],[5.232617187500011,53.377783203125],[5.190234375000017,53.391796875],[5.415136718750006,53.431445312499996],[5.557421875000017,53.4435546875],[5.582617187500006,53.4380859375],[5.32578125,53.3857421875]]],[[[4.886132812500023,53.070703125],[4.787109375,52.999804687499996],[4.726757812500011,53.01962890625],[4.709179687500011,53.03603515625],[4.73984375,53.09130859375],[4.886425781250011,53.18330078125],[4.886132812500023,53.070703125]]],[[[3.949121093750023,51.739453125],[4.046777343750023,51.684912109375],[4.067578125000011,51.66748046875],[4.075097656250023,51.648779296875],[3.950976562500017,51.62705078125],[3.819042968750011,51.693994140625],[3.731835937500023,51.67822265625],[3.699023437500017,51.709912109375],[3.698535156250017,51.7296875],[3.7890625,51.746435546875],[3.949121093750023,51.739453125]]],[[[6.734765625000023,53.58251953125],[6.64208984375,53.57919921875],[6.668554687500006,53.6056640625],[6.754589843750011,53.62548828125],[6.800878906250006,53.62548828125],[6.734765625000023,53.58251953125]]],[[[-68.205810546875,12.144580078124989],[-68.254345703125,12.032080078124991],[-68.2822265625,12.082275390625],[-68.287255859375,12.171728515624991],[-68.30712890625,12.206738281249997],[-68.34843749999999,12.228076171874989],[-68.37109375,12.257519531249997],[-68.36923828124999,12.301953125],[-68.219482421875,12.23125],[-68.205810546875,12.144580078124989]]],[[[-62.9375,17.495654296875003],[-62.96171874999999,17.475048828124997],[-62.98310546875,17.47690429687499],[-62.99716796874999,17.496826171875],[-62.999609375,17.53037109374999],[-62.97934570312499,17.521191406249997],[-62.97177734374999,17.516064453124997],[-62.96542968749999,17.50927734375],[-62.9375,17.495654296875003]]],[[[-63.232666015625,17.62314453124999],[-63.241601562499994,17.619580078124997],[-63.25449218749999,17.628662109375],[-63.2521484375,17.645263671875],[-63.241650390625,17.651806640624997],[-63.23349609374999,17.647216796875],[-63.22690429687499,17.63413085937499],[-63.232666015625,17.62314453124999]]]]}}]}